{
  "type": "FeatureCollection",
  "name": "site_truth_v0_1",
  "metadata": {
    "status": "SECONDARY_OPEN_DATA_CROSSCHECK",
    "created_utc": "2026-10-04T07:55:00Z",
    "source_crs": "EPSG:4326",
    "target_working_crs": "EPSG:25831",
    "note": "Real public geometry. Municipal 2026 DWG/topographic data remains higher authority and will supersede where conflicts exist."
  },
  "features": [
    {
      "type": "Feature",
      "properties": {
        "id": "PLAZA_OSM",
        "kind": "competition_plaza",
        "source": "OpenStreetMap/Nominatim",
        "osm_id": 23431084,
        "license": "ODbL 1.0",
        "authority": "secondary"
      },
      "geometry": {
        "type": "Polygon",
        "coordinates": [
          [
            [
              2.1723411,
              41.4025935
            ],
            [
              2.172664,
              41.4023487
            ],
            [
              2.1727073,
              41.4023158
            ],
            [
              2.1727512,
              41.4022826
            ],
            [
              2.1728491,
              41.4022085
            ],
            [
              2.1730697,
              41.4020415
            ],
            [
              2.1732806,
              41.4020452
            ],
            [
              2.1733578,
              41.4021026
            ],
            [
              2.1735485,
              41.4022444
            ],
            [
              2.1737513,
              41.4023943
            ],
            [
              2.1739915,
              41.4025718
            ],
            [
              2.1739913,
              41.4027405
            ],
            [
              2.1737517,
              41.4029229
            ],
            [
              2.1735867,
              41.4030485
            ],
            [
              2.1734521,
              41.4031481
            ],
            [
              2.1732709,
              41.4032822
            ],
            [
              2.1730815,
              41.4032811
            ],
            [
              2.1730562,
              41.4032649
            ],
            [
              2.1729527,
              41.4031884
            ],
            [
              2.1729808,
              41.40317
            ],
            [
              2.1728415,
              41.4030652
            ],
            [
              2.1728199,
              41.4030576
            ],
            [
              2.1727997,
              41.4030731
            ],
            [
              2.1727382,
              41.4030274
            ],
            [
              2.1727147,
              41.40301
            ],
            [
              2.1726696,
              41.4029766
            ],
            [
              2.1723416,
              41.402734
            ],
            [
              2.1723415,
              41.4027093
            ],
            [
              2.1723412,
              41.4026156
            ],
            [
              2.1723411,
              41.4025935
            ]
          ]
        ]
      }
    },
    {
      "type": "Feature",
      "properties": {
        "id": "BASILICA_OSM",
        "kind": "sagrada_basilica",
        "source": "OpenStreetMap/Nominatim",
        "osm_id": 9194723,
        "license": "ODbL 1.0",
        "authority": "secondary"
      },
      "geometry": {
        "type": "Polygon",
        "coordinates": [
          [
            [
              2.1735675,
              41.4036645
            ],
            [
              2.1735779,
              41.4036401
            ],
            [
              2.1736119,
              41.4036292
            ],
            [
              2.1737264,
              41.4035384
            ],
            [
              2.1738385,
              41.4034557
            ],
            [
              2.1738689,
              41.4034334
            ],
            [
              2.1738642,
              41.4034061
            ],
            [
              2.1739202,
              41.403377
            ],
            [
              2.1739485,
              41.4033576
            ],
            [
              2.1739727,
              41.4033488
            ],
            [
              2.1740095,
              41.4033394
            ],
            [
              2.1740362,
              41.4033109
            ],
            [
              2.1740416,
              41.4032673
            ],
            [
              2.1740692,
              41.4032671
            ],
            [
              2.1740989,
              41.403243
            ],
            [
              2.1741146,
              41.4032208
            ],
            [
              2.1741577,
              41.4032268
            ],
            [
              2.174184,
              41.4032068
            ],
            [
              2.1743998,
              41.4030422
            ],
            [
              2.1744632,
              41.40309
            ],
            [
              2.1742462,
              41.4032532
            ],
            [
              2.1742233,
              41.4032697
            ],
            [
              2.1742479,
              41.4032872
            ],
            [
              2.1742895,
              41.4033395
            ],
            [
              2.1743344,
              41.4033058
            ],
            [
              2.1743964,
              41.4032595
            ],
            [
              2.1744608,
              41.4032125
            ],
            [
              2.1745261,
              41.4031641
            ],
            [
              2.1746043,
              41.4031089
            ],
            [
              2.1746425,
              41.4031179
            ],
            [
              2.174662,
              41.4031521
            ],
            [
              2.1746935,
              41.4031567
            ],
            [
              2.1747223,
              41.4031788
            ],
            [
              2.1747378,
              41.4032115
            ],
            [
              2.1747659,
              41.4032165
            ],
            [
              2.1747932,
              41.4032234
            ],
            [
              2.1748144,
              41.4032378
            ],
            [
              2.1748348,
              41.4032581
            ],
            [
              2.1748516,
              41.4032814
            ],
            [
              2.1748732,
              41.4033117
            ],
            [
              2.1749325,
              41.403342
            ],
            [
              2.1749537,
              41.4033726
            ],
            [
              2.1749885,
              41.403391
            ],
            [
              2.1749161,
              41.403465
            ],
            [
              2.1748725,
              41.4034969
            ],
            [
              2.1748082,
              41.4035454
            ],
            [
              2.1747465,
              41.4035912
            ],
            [
              2.1746804,
              41.4036395
            ],
            [
              2.1747314,
              41.403679
            ],
            [
              2.1747823,
              41.4036782
            ],
            [
              2.1748553,
              41.4037146
            ],
            [
              2.1748196,
              41.4037408
            ],
            [
              2.1747807,
              41.4037454
            ],
            [
              2.1747414,
              41.4037761
            ],
            [
              2.1746865,
              41.4037911
            ],
            [
              2.1746494,
              41.4038178
            ],
            [
              2.1746174,
              41.4038409
            ],
            [
              2.1746164,
              41.4038779
            ],
            [
              2.1745906,
              41.4038865
            ],
            [
              2.1745577,
              41.4039093
            ],
            [
              2.1745148,
              41.403964
            ],
            [
              2.1744544,
              41.4039204
            ],
            [
              2.1744679,
              41.4038711
            ],
            [
              2.1744115,
              41.4038279
            ],
            [
              2.1743881,
              41.403844
            ],
            [
              2.1743679,
              41.4038613
            ],
            [
              2.1743368,
              41.4038681
            ],
            [
              2.1743006,
              41.4038588
            ],
            [
              2.1743063,
              41.4038895
            ],
            [
              2.1742677,
              41.403896
            ],
            [
              2.1742291,
              41.4038942
            ],
            [
              2.1741946,
              41.4039141
            ],
            [
              2.1741634,
              41.4039189
            ],
            [
              2.1741302,
              41.4039046
            ],
            [
              2.1740883,
              41.4039101
            ],
            [
              2.1740545,
              41.4039056
            ],
            [
              2.1740343,
              41.4038834
            ],
            [
              2.1739934,
              41.4038734
            ],
            [
              2.1739649,
              41.4038598
            ],
            [
              2.1739602,
              41.4038314
            ],
            [
              2.1739284,
              41.40381
            ],
            [
              2.1739106,
              41.4037869
            ],
            [
              2.1739237,
              41.4037605
            ],
            [
              2.1739056,
              41.4037313
            ],
            [
              2.1738912,
              41.4036996
            ],
            [
              2.1739307,
              41.4036848
            ],
            [
              2.1739317,
              41.4036528
            ],
            [
              2.1739465,
              41.4036277
            ],
            [
              2.1739863,
              41.4036185
            ],
            [
              2.1739596,
              41.4036032
            ],
            [
              2.1739775,
              41.4035764
            ],
            [
              2.1739975,
              41.403558
            ],
            [
              2.1740268,
              41.4035519
            ],
            [
              2.1739797,
              41.403504
            ],
            [
              2.1739515,
              41.4034899
            ],
            [
              2.173926,
              41.4034879
            ],
            [
              2.1737926,
              41.4035864
            ],
            [
              2.1738188,
              41.4036057
            ],
            [
              2.1738565,
              41.4036345
            ],
            [
              2.1738566,
              41.4036937
            ],
            [
              2.1738416,
              41.4037205
            ],
            [
              2.1738712,
              41.4037336
            ],
            [
              2.1738528,
              41.4037647
            ],
            [
              2.1738122,
              41.4037515
            ],
            [
              2.1737272,
              41.4037919
            ],
            [
              2.17369,
              41.4037632
            ],
            [
              2.1736535,
              41.4037347
            ],
            [
              2.1736146,
              41.403705
            ],
            [
              2.1735888,
              41.403683
            ],
            [
              2.1735675,
              41.4036645
            ]
          ]
        ]
      }
    },
    {
      "type": "Feature",
      "properties": {
        "id": "BLOCK_25220",
        "kind": "urban_block_union",
        "source": "CARTO public Barcelona building footprints",
        "c_illa": "25220",
        "built_area_m2": 14585.0938165,
        "authority": "secondary"
      },
      "geometry": {
        "type": "Polygon",
        "coordinates": [
          [
            [
              2.173588521,
              41.403694136
            ],
            [
              2.174336347,
              41.404255263
            ],
            [
              2.174578507,
              41.404253081
            ],
            [
              2.175298739,
              41.403705109
            ],
            [
              2.175295143,
              41.403527654
            ],
            [
              2.174423432,
              41.402872255
            ],
            [
              2.174182875,
              41.402871962
            ],
            [
              2.173454594,
              41.403421662
            ],
            [
              2.173453006,
              41.403592441
            ],
            [
              2.173588521,
              41.403694136
            ]
          ]
        ]
      }
    },
    {
      "type": "Feature",
      "properties": {
        "id": "BLOCK_25240",
        "kind": "urban_block_union",
        "source": "CARTO public Barcelona building footprints",
        "c_illa": "25240",
        "built_area_m2": 12702.792638841,
        "authority": "secondary"
      },
      "geometry": {
        "type": "Polygon",
        "coordinates": [
          [
            [
              2.171185023,
              41.402147874
            ],
            [
              2.171037304,
              41.402033631
            ],
            [
              2.170771719,
              41.40203462
            ],
            [
              2.170085253,
              41.402557153
            ],
            [
              2.170054877,
              41.402594874
            ],
            [
              2.170054739,
              41.402759107
            ],
            [
              2.170788748,
              41.403306592
            ],
            [
              2.171023785,
              41.403307276
            ],
            [
              2.171725962,
              41.402774248
            ],
            [
              2.171754113,
              41.402724161
            ],
            [
              2.171754953,
              41.402596621
            ],
            [
              2.171740659,
              41.402565352
            ],
            [
              2.171185023,
              41.402147874
            ]
          ]
        ]
      }
    },
    {
      "type": "Feature",
      "properties": {
        "id": "BLOCK_25250",
        "kind": "urban_block_union",
        "source": "CARTO public Barcelona building footprints",
        "c_illa": "25250",
        "built_area_m2": 12641.494713280199,
        "authority": "secondary"
      },
      "geometry": {
        "type": "Polygon",
        "coordinates": [
          [
            [
              2.17220099,
              41.402908335
            ],
            [
              2.172140953,
              41.40287472
            ],
            [
              2.171918057,
              41.402877108
            ],
            [
              2.17118356,
              41.403430513
            ],
            [
              2.171184256,
              41.403601832
            ],
            [
              2.171917417,
              41.404148755
            ],
            [
              2.17215666,
              41.40414825
            ],
            [
              2.172885026,
              41.4035981
            ],
            [
              2.172883509,
              41.403419435
            ],
            [
              2.17220099,
              41.402908335
            ]
          ]
        ]
      }
    },
    {
      "type": "Feature",
      "properties": {
        "id": "BLOCK_25230",
        "kind": "urban_block_union",
        "source": "CARTO public Barcelona building footprints",
        "c_illa": "25230",
        "built_area_m2": 12610.990912919002,
        "authority": "secondary"
      },
      "geometry": {
        "type": "Polygon",
        "coordinates": [
          [
            [
              2.171952631,
              41.401177623
            ],
            [
              2.171910168,
              41.401178065
            ],
            [
              2.171189244,
              41.401722147
            ],
            [
              2.171186795,
              41.401898991
            ],
            [
              2.171912048,
              41.402440705
            ],
            [
              2.172143433,
              41.402447098
            ],
            [
              2.172884394,
              41.401899353
            ],
            [
              2.172882635,
              41.401718164
            ],
            [
              2.172147282,
              41.401174816
            ],
            [
              2.171952631,
              41.401177623
            ]
          ]
        ]
      }
    },
    {
      "type": "Feature",
      "properties": {
        "id": "BLOCK_25023",
        "kind": "urban_block_union",
        "source": "CARTO public Barcelona building footprints",
        "c_illa": "25023",
        "built_area_m2": 12604.4964491,
        "authority": "secondary"
      },
      "geometry": {
        "type": "Polygon",
        "coordinates": [
          [
            [
              2.17232176,
              41.402747006
            ],
            [
              2.173042922,
              41.403286368
            ],
            [
              2.173292147,
              41.40329095
            ],
            [
              2.174017473,
              41.40274313
            ],
            [
              2.17401544,
              41.402566272
            ],
            [
              2.17328063,
              41.402016306
            ],
            [
              2.173057797,
              41.402013931
            ],
            [
              2.172324108,
              41.402568413
            ],
            [
              2.17232176,
              41.402747006
            ]
          ]
        ]
      }
    },
    {
      "type": "Feature",
      "properties": {
        "id": "BLOCK_25210",
        "kind": "urban_block_union",
        "source": "CARTO public Barcelona building footprints",
        "c_illa": "25210",
        "built_area_m2": 10594.0626964,
        "authority": "secondary"
      },
      "geometry": {
        "type": "Polygon",
        "coordinates": [
          [
            [
              2.175548837,
              41.404986587
            ],
            [
              2.176393109,
              41.404359906
            ],
            [
              2.176393006,
              41.404345322
            ],
            [
              2.175701866,
              41.403833624
            ],
            [
              2.175467197,
              41.403833024
            ],
            [
              2.174752701,
              41.40437676
            ],
            [
              2.174759785,
              41.404568787
            ],
            [
              2.175440818,
              41.405073582
            ],
            [
              2.175548837,
              41.404986587
            ]
          ]
        ]
      }
    },
    {
      "type": "Feature",
      "properties": {
        "id": "BLOCK_40760",
        "kind": "urban_block_union",
        "source": "CARTO public Barcelona building footprints",
        "c_illa": "40760",
        "built_area_m2": 9460.63788113,
        "authority": "secondary"
      },
      "geometry": {
        "type": "Polygon",
        "coordinates": [
          [
            [
              2.170674108,
              41.400717497
            ],
            [
              2.170723,
              41.400754249
            ],
            [
              2.170300783,
              41.401055102
            ],
            [
              2.170351312,
              41.401093937
            ],
            [
              2.170231119,
              41.401184254
            ],
            [
              2.170782645,
              41.401596483
            ],
            [
              2.171019018,
              41.401597005
            ],
            [
              2.171739108,
              41.401049802
            ],
            [
              2.171736483,
              41.400869219
            ],
            [
              2.171037884,
              41.400345882
            ],
            [
              2.170997573,
              41.400374812
            ],
            [
              2.170999236,
              41.400559388
            ],
            [
              2.171037204,
              41.400569038
            ],
            [
              2.171036598,
              41.4006139
            ],
            [
              2.170927026,
              41.400697052
            ],
            [
              2.170823002,
              41.400619325
            ],
            [
              2.170694543,
              41.400617481
            ],
            [
              2.170618034,
              41.400675362
            ],
            [
              2.170674108,
              41.400717497
            ]
          ]
        ]
      }
    },
    {
      "type": "Feature",
      "properties": {
        "id": "BLOCK_25032",
        "kind": "urban_block_union",
        "source": "CARTO public Barcelona building footprints",
        "c_illa": "25032",
        "built_area_m2": 8936.773871194,
        "authority": "secondary"
      },
      "geometry": {
        "type": "Polygon",
        "coordinates": [
          [
            [
              2.175974007,
              41.402332066
            ],
            [
              2.175863954,
              41.402249797
            ],
            [
              2.174900398,
              41.40297182
            ],
            [
              2.175464813,
              41.403397585
            ],
            [
              2.175703085,
              41.403395156
            ],
            [
              2.176408571,
              41.402857565
            ],
            [
              2.176423191,
              41.402831936
            ],
            [
              2.176422004,
              41.402681385
            ],
            [
              2.176408142,
              41.402656389
            ],
            [
              2.175974007,
              41.402332066
            ]
          ]
        ]
      }
    },
    {
      "type": "Feature",
      "properties": {
        "id": "BLOCK_25021",
        "kind": "urban_block_union",
        "source": "CARTO public Barcelona building footprints",
        "c_illa": "25021",
        "built_area_m2": 7071.476658563801,
        "authority": "secondary"
      },
      "geometry": {
        "type": "Polygon",
        "coordinates": [
          [
            [
              2.174154415,
              41.401187724
            ],
            [
              2.173450775,
              41.401716523
            ],
            [
              2.173459834,
              41.401894856
            ],
            [
              2.173887676,
              41.402211414
            ],
            [
              2.174835762,
              41.401482011
            ],
            [
              2.174415847,
              41.401167666
            ],
            [
              2.174181133,
              41.401167586
            ],
            [
              2.174154415,
              41.401187724
            ]
          ]
        ]
      }
    },
    {
      "type": "Feature",
      "properties": {
        "id": "BLOCK_25261",
        "kind": "urban_block_union",
        "source": "CARTO public Barcelona building footprints",
        "c_illa": "25261",
        "built_area_m2": 7020.032893574,
        "authority": "secondary"
      },
      "geometry": {
        "type": "Polygon",
        "coordinates": [
          [
            [
              2.172788184,
              41.404108598
            ],
            [
              2.172667635,
              41.404015468
            ],
            [
              2.172324548,
              41.40427449
            ],
            [
              2.172324075,
              41.404454258
            ],
            [
              2.173185074,
              41.405118505
            ],
            [
              2.173224844,
              41.405131482
            ],
            [
              2.173417597,
              41.405131181
            ],
            [
              2.173458026,
              41.405118672
            ],
            [
              2.173774207,
              41.404870857
            ],
            [
              2.172788184,
              41.404108598
            ]
          ]
        ]
      }
    },
    {
      "type": "Feature",
      "properties": {
        "id": "BLOCK_05020",
        "kind": "urban_block_union",
        "source": "CARTO public Barcelona building footprints",
        "c_illa": "05020",
        "built_area_m2": 6849.2449267471,
        "authority": "secondary"
      },
      "geometry": {
        "type": "Polygon",
        "coordinates": [
          [
            [
              2.175034839,
              41.400657521
            ],
            [
              2.174887255,
              41.400632666
            ],
            [
              2.174581757,
              41.400864402
            ],
            [
              2.174582297,
              41.40103934
            ],
            [
              2.175311422,
              41.401585663
            ],
            [
              2.175549989,
              41.401584894
            ],
            [
              2.175881084,
              41.40133455
            ],
            [
              2.175528391,
              41.401076645
            ],
            [
              2.175546268,
              41.40107253
            ],
            [
              2.175660675,
              41.400811636
            ],
            [
              2.175034839,
              41.400657521
            ]
          ]
        ]
      }
    },
    {
      "type": "Feature",
      "properties": {
        "id": "BLOCK_25262",
        "kind": "urban_block_union",
        "source": "CARTO public Barcelona building footprints",
        "c_illa": "25262",
        "built_area_m2": 6796.790199232,
        "authority": "secondary"
      },
      "geometry": {
        "type": "Polygon",
        "coordinates": [
          [
            [
              2.172962101,
              41.40379399
            ],
            [
              2.172734608,
              41.403965372
            ],
            [
              2.173841598,
              41.404820899
            ],
            [
              2.174164684,
              41.40457369
            ],
            [
              2.174173371,
              41.404383514
            ],
            [
              2.173294956,
              41.403727518
            ],
            [
              2.173062034,
              41.403723999
            ],
            [
              2.172962101,
              41.40379399
            ]
          ]
        ]
      }
    },
    {
      "type": "Feature",
      "properties": {
        "id": "BLOCK_25012",
        "kind": "urban_block_union",
        "source": "CARTO public Barcelona building footprints",
        "c_illa": "25012",
        "built_area_m2": 6546.424552987399,
        "authority": "secondary"
      },
      "geometry": {
        "type": "Polygon",
        "coordinates": [
          [
            [
              2.173375686,
              41.400383144
            ],
            [
              2.173284304,
              41.400313959
            ],
            [
              2.173047342,
              41.400314005
            ],
            [
              2.172668884,
              41.400600896
            ],
            [
              2.173635159,
              41.401330344
            ],
            [
              2.174018139,
              41.401042537
            ],
            [
              2.174013851,
              41.400866103
            ],
            [
              2.173375686,
              41.400383144
            ]
          ]
        ]
      }
    },
    {
      "type": "Feature",
      "properties": {
        "id": "BLOCK_25493",
        "kind": "urban_block_union",
        "source": "CARTO public Barcelona building footprints",
        "c_illa": "25493",
        "built_area_m2": 6531.1429938321,
        "authority": "secondary"
      },
      "geometry": {
        "type": "Polygon",
        "coordinates": [
          [
            [
              2.170864251,
              41.403800918
            ],
            [
              2.170913271,
              41.403839147
            ],
            [
              2.170930979,
              41.403824836
            ],
            [
              2.17131445,
              41.404124249
            ],
            [
              2.171281618,
              41.404149991
            ],
            [
              2.170764526,
              41.403747002
            ],
            [
              2.170500726,
              41.403947779
            ],
            [
              2.17061098,
              41.404030839
            ],
            [
              2.17050316,
              41.404138485
            ],
            [
              2.171337947,
              41.404767851
            ],
            [
              2.171750726,
              41.404457216
            ],
            [
              2.171748673,
              41.404275826
            ],
            [
              2.171019102,
              41.403729766
            ],
            [
              2.170780795,
              41.403735796
            ],
            [
              2.170864251,
              41.403800918
            ]
          ]
        ]
      }
    },
    {
      "type": "Feature",
      "properties": {
        "id": "BLOCK_25011",
        "kind": "urban_block_union",
        "source": "CARTO public Barcelona building footprints",
        "c_illa": "25011",
        "built_area_m2": 5503.332615472,
        "authority": "secondary"
      },
      "geometry": {
        "type": "Polygon",
        "coordinates": [
          [
            [
              2.17286644,
              41.400824674
            ],
            [
              2.172618867,
              41.400637656
            ],
            [
              2.172309604,
              41.400869457
            ],
            [
              2.172313401,
              41.401047464
            ],
            [
              2.173051443,
              41.401592902
            ],
            [
              2.173290615,
              41.40159161
            ],
            [
              2.173585963,
              41.401368435
            ],
            [
              2.17286644,
              41.400824674
            ]
          ]
        ]
      }
    },
    {
      "type": "Feature",
      "properties": {
        "id": "BLOCK_25031",
        "kind": "urban_block_union",
        "source": "CARTO public Barcelona building footprints",
        "c_illa": "25031",
        "built_area_m2": 4666.7647215663,
        "authority": "secondary"
      },
      "geometry": {
        "type": "Polygon",
        "coordinates": [
          [
            [
              2.17557959,
              41.402036463
            ],
            [
              2.1755527,
              41.402016256
            ],
            [
              2.175313473,
              41.402018957
            ],
            [
              2.17459151,
              41.402564394
            ],
            [
              2.174596194,
              41.402743623
            ],
            [
              2.174835487,
              41.402923344
            ],
            [
              2.175799653,
              41.402200417
            ],
            [
              2.17557959,
              41.402036463
            ]
          ]
        ]
      }
    },
    {
      "type": "Feature",
      "properties": {
        "id": "BLOCK_25022",
        "kind": "urban_block_union",
        "source": "CARTO public Barcelona building footprints",
        "c_illa": "25022",
        "built_area_m2": 4553.413303375801,
        "authority": "secondary"
      },
      "geometry": {
        "type": "Polygon",
        "coordinates": [
          [
            [
              2.174982411,
              41.401592377
            ],
            [
              2.17490303,
              41.401533106
            ],
            [
              2.173954915,
              41.40226205
            ],
            [
              2.174185464,
              41.402435666
            ],
            [
              2.174425791,
              41.402435066
            ],
            [
              2.175143257,
              41.401893317
            ],
            [
              2.175143528,
              41.401712763
            ],
            [
              2.174982411,
              41.401592377
            ]
          ]
        ]
      }
    },
    {
      "type": "Feature",
      "properties": {
        "id": "BLOCK_25502",
        "kind": "urban_block_union",
        "source": "CARTO public Barcelona building footprints",
        "c_illa": "25502",
        "built_area_m2": 4029.2801610168,
        "authority": "secondary"
      },
      "geometry": {
        "type": "Polygon",
        "coordinates": [
          [
            [
              2.170005402,
              41.403012204
            ],
            [
              2.169807463,
              41.403161229
            ],
            [
              2.169881427,
              41.403215249
            ],
            [
              2.169657754,
              41.403382086
            ],
            [
              2.170297596,
              41.403850899
            ],
            [
              2.170617295,
              41.403605433
            ],
            [
              2.170617446,
              41.403429689
            ],
            [
              2.170032966,
              41.402991532
            ],
            [
              2.170005402,
              41.403012204
            ]
          ]
        ]
      }
    },
    {
      "type": "Feature",
      "properties": {
        "id": "BLOCK_82790",
        "kind": "urban_block_union",
        "source": "CARTO public Barcelona building footprints",
        "c_illa": "82790",
        "built_area_m2": 3630.875291081,
        "authority": "secondary"
      },
      "geometry": {
        "type": "Polygon",
        "coordinates": [
          [
            [
              2.170426431,
              41.401581298
            ],
            [
              2.170313198,
              41.401496703
            ],
            [
              2.169892021,
              41.401802724
            ],
            [
              2.16998683,
              41.401880746
            ],
            [
              2.169820216,
              41.402006992
            ],
            [
              2.169846129,
              41.402026725
            ],
            [
              2.169730734,
              41.402114014
            ],
            [
              2.170037714,
              41.402340495
            ],
            [
              2.170617605,
              41.401901216
            ],
            [
              2.170608502,
              41.401717524
            ],
            [
              2.170426431,
              41.401581298
            ]
          ]
        ]
      }
    },
    {
      "type": "Feature",
      "properties": {
        "id": "BLOCK_25480",
        "kind": "urban_block_union",
        "source": "CARTO public Barcelona building footprints",
        "c_illa": "25480",
        "built_area_m2": 3300.5131771137003,
        "authority": "secondary"
      },
      "geometry": {
        "type": "Polygon",
        "coordinates": [
          [
            [
              2.172212634,
              41.404621159
            ],
            [
              2.172161572,
              41.404582582
            ],
            [
              2.171919839,
              41.404580213
            ],
            [
              2.171564155,
              41.404850069
            ],
            [
              2.171944019,
              41.405138447
            ],
            [
              2.172018242,
              41.40508281
            ],
            [
              2.172231156,
              41.405249313
            ],
            [
              2.172247009,
              41.405228457
            ],
            [
              2.17214646,
              41.405149612
            ],
            [
              2.172417527,
              41.404947496
            ],
            [
              2.172494228,
              41.405003984
            ],
            [
              2.172347247,
              41.405096894
            ],
            [
              2.172447192,
              41.40517532
            ],
            [
              2.172700539,
              41.404990154
            ],
            [
              2.172212634,
              41.404621159
            ]
          ],
          [
            [
              2.172039585,
              41.405066831
            ],
            [
              2.172251158,
              41.404908856
            ],
            [
              2.172333957,
              41.404971288
            ],
            [
              2.172120654,
              41.405129854
            ],
            [
              2.172039585,
              41.405066831
            ]
          ]
        ]
      }
    },
    {
      "type": "Feature",
      "properties": {
        "id": "BLOCK_40750",
        "kind": "urban_block_union",
        "source": "CARTO public Barcelona building footprints",
        "c_illa": "40750",
        "built_area_m2": 2978.7578619328,
        "authority": "secondary"
      },
      "geometry": {
        "type": "Polygon",
        "coordinates": [
          [
            [
              2.17258741,
              41.400405082
            ],
            [
              2.172687746,
              41.400329338
            ],
            [
              2.172377564,
              41.400099597
            ],
            [
              2.172276628,
              41.40017549
            ],
            [
              2.172266945,
              41.400168376
            ],
            [
              2.172081028,
              41.400375987
            ],
            [
              2.171976486,
              41.40031928
            ],
            [
              2.171656603,
              41.400555489
            ],
            [
              2.171902602,
              41.400743741
            ],
            [
              2.172139298,
              41.400743128
            ],
            [
              2.17258741,
              41.400405082
            ]
          ]
        ]
      }
    },
    {
      "type": "Feature",
      "properties": {
        "id": "BLOCK_05030",
        "kind": "urban_block_union",
        "source": "CARTO public Barcelona building footprints",
        "c_illa": "05030",
        "built_area_m2": 2453.1266478629996,
        "authority": "secondary"
      },
      "geometry": {
        "type": "Polygon",
        "coordinates": [
          [
            [
              2.175987077,
              41.401588527
            ],
            [
              2.175933917,
              41.401549343
            ],
            [
              2.175718454,
              41.4017128
            ],
            [
              2.175719056,
              41.401891576
            ],
            [
              2.176279335,
              41.402310174
            ],
            [
              2.176438238,
              41.402191141
            ],
            [
              2.176173912,
              41.401829752
            ],
            [
              2.176260062,
              41.401789736
            ],
            [
              2.175987077,
              41.401588527
            ]
          ]
        ]
      }
    },
    {
      "type": "Feature",
      "properties": {
        "id": "BLOCK_05010",
        "kind": "urban_block_union",
        "source": "CARTO public Barcelona building footprints",
        "c_illa": "05010",
        "built_area_m2": 1530.1870949186,
        "authority": "secondary"
      },
      "geometry": {
        "type": "Polygon",
        "coordinates": [
          [
            [
              2.174043503,
              41.400408807
            ],
            [
              2.173862049,
              41.400362512
            ],
            [
              2.173812379,
              41.400467436
            ],
            [
              2.17418403,
              41.400742822
            ],
            [
              2.174415803,
              41.40074261
            ],
            [
              2.174641158,
              41.40056603
            ],
            [
              2.174582791,
              41.400538553
            ],
            [
              2.174043503,
              41.400408807
            ]
          ]
        ]
      }
    },
    {
      "type": "Feature",
      "properties": {
        "id": "BLOCK_25040",
        "kind": "urban_block_union",
        "source": "CARTO public Barcelona building footprints",
        "c_illa": "25040",
        "built_area_m2": 816.0682388449001,
        "authority": "secondary"
      },
      "geometry": {
        "type": "Polygon",
        "coordinates": [
          [
            [
              2.176292986,
              41.403389046
            ],
            [
              2.176167564,
              41.403295858
            ],
            [
              2.175886516,
              41.403510162
            ],
            [
              2.175871987,
              41.403535252
            ],
            [
              2.175872247,
              41.403687084
            ],
            [
              2.175886609,
              41.403712264
            ],
            [
              2.175931678,
              41.403746202
            ],
            [
              2.176304933,
              41.403397914
            ],
            [
              2.176292986,
              41.403389046
            ]
          ]
        ]
      }
    },
    {
      "type": "Feature",
      "properties": {
        "id": "BLOCK_25270",
        "kind": "urban_block_union",
        "source": "CARTO public Barcelona building footprints",
        "c_illa": "25270",
        "built_area_m2": 346.076477159,
        "authority": "secondary"
      },
      "geometry": {
        "type": "Polygon",
        "coordinates": [
          [
            [
              2.174276268,
              41.404936979
            ],
            [
              2.174277657,
              41.404847041
            ],
            [
              2.174179184,
              41.404821438
            ],
            [
              2.174032093,
              41.404932751
            ],
            [
              2.174131982,
              41.405025092
            ],
            [
              2.174274622,
              41.405047201
            ],
            [
              2.174276268,
              41.404936979
            ]
          ]
        ]
      }
    }
  ]
}